{"fetched_at":"2026-07-08T17:59:23.476Z","source":"https://celestrak.org/NORAD/elements/gp.php?GROUP=kuiper&FORMAT=JSON","constellation":"kuiper","records":[{"OBJECT_NAME":"KUIPER-00517","OBJECT_ID":"2026-140J","EPOCH":"2026-07-08T11:53:43.580256","CLASSIFICATION_TYPE":"U","MEAN_MOTION":15.38717662,"ECCENTRICITY":0.0009784,"INCLINATION":51.877,"RA_OF_ASC_NODE":295.5324,"ARG_OF_PERICENTER":263.993,"MEAN_ANOMALY":95.9943,"EPHEMERIS_TYPE":0,"NORAD_CAT_ID":69600,"ELEMENT_SET_NO":999,"REV_AT_EPOCH":451,"BSTAR":0.00061304,"MEAN_MOTION_DOT":0.00023538,"MEAN_MOTION_DDOT":0},{"OBJECT_NAME":"KUIPER-00520","OBJECT_ID":"2026-140K","EPOCH":"2026-07-08T12:21:28.353600","CLASSIFICATION_TYPE":"U","MEAN_MOTION":15.37532936,"ECCENTRICITY":0.000644,"INCLINATION":51.8814,"RA_OF_ASC_NODE":295.6676,"ARG_OF_PERICENTER":331.4189,"MEAN_ANOMALY":28.6444,"EPHEMERIS_TYPE":0,"NORAD_CAT_ID":69601,"ELEMENT_SET_NO":999,"REV_AT_EPOCH":451,"BSTAR":0.00036036,"MEAN_MOTION_DOT":0.00013114,"MEAN_MOTION_DDOT":0},{"OBJECT_NAME":"KUIPER-00522","OBJECT_ID":"2026-140L","EPOCH":"2026-07-08T11:48:00.980064","CLASSIFICATION_TYPE":"U","MEAN_MOTION":15.38548565,"ECCENTRICITY":0.0014163,"INCLINATION":51.8791,"RA_OF_ASC_NODE":295.5101,"ARG_OF_PERICENTER":248.4936,"MEAN_ANOMALY":111.4542,"EPHEMERIS_TYPE":0,"NORAD_CAT_ID":69602,"ELEMENT_SET_NO":999,"REV_AT_EPOCH":451,"BSTAR":0.00063425,"MEAN_MOTION_DOT":0.00024274,"MEAN_MOTION_DDOT":0},{"OBJECT_NAME":"KUIPER-00528","OBJECT_ID":"2026-140M","EPOCH":"2026-07-08T12:24:24.111936","CLASSIFICATION_TYPE":"U","MEAN_MOTION":15.37382673,"ECCENTRICITY":0.0005401,"INCLINATION":51.8782,"RA_OF_ASC_NODE":295.671,"ARG_OF_PERICENTER":338.0336,"MEAN_ANOMALY":22.0418,"EPHEMERIS_TYPE":0,"NORAD_CAT_ID":69603,"ELEMENT_SET_NO":999,"REV_AT_EPOCH":451,"BSTAR":0.00031232,"MEAN_MOTION_DOT":0.00011252,"MEAN_MOTION_DDOT":0},{"OBJECT_NAME":"KUIPER-00532","OBJECT_ID":"2026-140N","EPOCH":"2026-07-08T12:35:20.429664","CLASSIFICATION_TYPE":"U","MEAN_MOTION":15.36662626,"ECCENTRICITY":0.0005571,"INCLINATION":51.8784,"RA_OF_ASC_NODE":295.7194,"ARG_OF_PERICENTER":11.7203,"MEAN_ANOMALY":348.3912,"EPHEMERIS_TYPE":0,"NORAD_CAT_ID":69604,"ELEMENT_SET_NO":999,"REV_AT_EPOCH":451,"BSTAR":0.00046263,"MEAN_MOTION_DOT":0.00016476,"MEAN_MOTION_DDOT":0},{"OBJECT_NAME":"KUIPER-00533","OBJECT_ID":"2026-140P","EPOCH":"2026-07-08T12:06:27.662976","CLASSIFICATION_TYPE":"U","MEAN_MOTION":15.38167486,"ECCENTRICITY":0.000891,"INCLINATION":51.879,"RA_OF_ASC_NODE":295.5921,"ARG_OF_PERICENTER":303.0953,"MEAN_ANOMALY":56.9178,"EPHEMERIS_TYPE":0,"NORAD_CAT_ID":69605,"ELEMENT_SET_NO":999,"REV_AT_EPOCH":451,"BSTAR":0.00056804,"MEAN_MOTION_DOT":0.00021377,"MEAN_MOTION_DDOT":0},{"OBJECT_NAME":"KUIPER-00534","OBJECT_ID":"2026-140Q","EPOCH":"2026-07-08T11:41:04.138080","CLASSIFICATION_TYPE":"U","MEAN_MOTION":15.38672593,"ECCENTRICITY":0.0014872,"INCLINATION":51.8827,"RA_OF_ASC_NODE":295.4837,"ARG_OF_PERICENTER":250.88,"MEAN_ANOMALY":109.0577,"EPHEMERIS_TYPE":0,"NORAD_CAT_ID":69606,"ELEMENT_SET_NO":999,"REV_AT_EPOCH":451,"BSTAR":0.00065857,"MEAN_MOTION_DOT":0.00025336,"MEAN_MOTION_DDOT":0},{"OBJECT_NAME":"KUIPER-00537","OBJECT_ID":"2026-140R","EPOCH":"2026-07-08T11:21:31.192416","CLASSIFICATION_TYPE":"U","MEAN_MOTION":15.3437711,"ECCENTRICITY":0.0010746,"INCLINATION":51.8813,"RA_OF_ASC_NODE":296.1306,"ARG_OF_PERICENTER":33.1691,"MEAN_ANOMALY":326.9966,"EPHEMERIS_TYPE":0,"NORAD_CAT_ID":69607,"ELEMENT_SET_NO":999,"REV_AT_EPOCH":450,"BSTAR":0.00042012,"MEAN_MOTION_DOT":0.00013866,"MEAN_MOTION_DDOT":0},{"OBJECT_NAME":"KUIPER-00538","OBJECT_ID":"2026-140S","EPOCH":"2026-07-08T12:18:25.530336","CLASSIFICATION_TYPE":"U","MEAN_MOTION":15.37628236,"ECCENTRICITY":0.0005731,"INCLINATION":51.8793,"RA_OF_ASC_NODE":295.6505,"ARG_OF_PERICENTER":318.8875,"MEAN_ANOMALY":41.1679,"EPHEMERIS_TYPE":0,"NORAD_CAT_ID":69608,"ELEMENT_SET_NO":999,"REV_AT_EPOCH":451,"BSTAR":0.00059376,"MEAN_MOTION_DOT":0.00021956,"MEAN_MOTION_DDOT":0},{"OBJECT_NAME":"KUIPER-00540","OBJECT_ID":"2026-140T","EPOCH":"2026-07-08T12:30:48.464064","CLASSIFICATION_TYPE":"U","MEAN_MOTION":15.36861629,"ECCENTRICITY":0.0006016,"INCLINATION":51.8827,"RA_OF_ASC_NODE":295.7108,"ARG_OF_PERICENTER":5.1562,"MEAN_ANOMALY":354.9485,"EPHEMERIS_TYPE":0,"NORAD_CAT_ID":69609,"ELEMENT_SET_NO":999,"REV_AT_EPOCH":451,"BSTAR":0.00045685,"MEAN_MOTION_DOT":0.00016372,"MEAN_MOTION_DDOT":0},{"OBJECT_NAME":"KUIPER-00541","OBJECT_ID":"2026-140U","EPOCH":"2026-07-08T12:06:50.145120","CLASSIFICATION_TYPE":"U","MEAN_MOTION":15.38320854,"ECCENTRICITY":0.0006603,"INCLINATION":51.8804,"RA_OF_ASC_NODE":295.6023,"ARG_OF_PERICENTER":298.6995,"MEAN_ANOMALY":61.3328,"EPHEMERIS_TYPE":0,"NORAD_CAT_ID":69610,"ELEMENT_SET_NO":999,"REV_AT_EPOCH":451,"BSTAR":0.00081214,"MEAN_MOTION_DOT":0.00030912,"MEAN_MOTION_DDOT":0},{"OBJECT_NAME":"KUIPER-00542","OBJECT_ID":"2026-140V","EPOCH":"2026-07-08T12:04:25.020768","CLASSIFICATION_TYPE":"U","MEAN_MOTION":15.38296256,"ECCENTRICITY":0.0008251,"INCLINATION":51.8798,"RA_OF_ASC_NODE":295.5848,"ARG_OF_PERICENTER":281.4637,"MEAN_ANOMALY":78.5423,"EPHEMERIS_TYPE":0,"NORAD_CAT_ID":69611,"ELEMENT_SET_NO":999,"REV_AT_EPOCH":451,"BSTAR":0.00055442,"MEAN_MOTION_DOT":0.00020938,"MEAN_MOTION_DDOT":0},{"OBJECT_NAME":"KUIPER-00543","OBJECT_ID":"2026-140W","EPOCH":"2026-07-08T12:36:34.472736","CLASSIFICATION_TYPE":"U","MEAN_MOTION":15.36734175,"ECCENTRICITY":0.0008264,"INCLINATION":51.8762,"RA_OF_ASC_NODE":295.7224,"ARG_OF_PERICENTER":6.6201,"MEAN_ANOMALY":353.4893,"EPHEMERIS_TYPE":0,"NORAD_CAT_ID":69612,"ELEMENT_SET_NO":999,"REV_AT_EPOCH":451,"BSTAR":0.00046113,"MEAN_MOTION_DOT":0.00016468,"MEAN_MOTION_DDOT":0},{"OBJECT_NAME":"KUIPER-00544","OBJECT_ID":"2026-140X","EPOCH":"2026-07-08T12:10:03.769248","CLASSIFICATION_TYPE":"U","MEAN_MOTION":15.38074644,"ECCENTRICITY":0.00081,"INCLINATION":51.8782,"RA_OF_ASC_NODE":295.6077,"ARG_OF_PERICENTER":298.2161,"MEAN_ANOMALY":61.8008,"EPHEMERIS_TYPE":0,"NORAD_CAT_ID":69613,"ELEMENT_SET_NO":999,"REV_AT_EPOCH":451,"BSTAR":0.00071425,"MEAN_MOTION_DOT":0.00026913,"MEAN_MOTION_DDOT":0},{"OBJECT_NAME":"KUIPER-00546","OBJECT_ID":"2026-140Y","EPOCH":"2026-07-08T11:42:33.090336","CLASSIFICATION_TYPE":"U","MEAN_MOTION":15.38826505,"ECCENTRICITY":0.0015668,"INCLINATION":51.8804,"RA_OF_ASC_NODE":295.487,"ARG_OF_PERICENTER":247.3176,"MEAN_ANOMALY":112.6155,"EPHEMERIS_TYPE":0,"NORAD_CAT_ID":69614,"ELEMENT_SET_NO":999,"REV_AT_EPOCH":451,"BSTAR":0.00059439,"MEAN_MOTION_DOT":0.00022946,"MEAN_MOTION_DDOT":0},{"OBJECT_NAME":"KUIPER-00547","OBJECT_ID":"2026-140Z","EPOCH":"2026-07-08T12:00:00.552960","CLASSIFICATION_TYPE":"U","MEAN_MOTION":15.37797562,"ECCENTRICITY":0.0011441,"INCLINATION":51.8862,"RA_OF_ASC_NODE":295.5736,"ARG_OF_PERICENTER":266.0931,"MEAN_ANOMALY":93.8748,"EPHEMERIS_TYPE":0,"NORAD_CAT_ID":69615,"ELEMENT_SET_NO":999,"REV_AT_EPOCH":451,"BSTAR":0.0007534,"MEAN_MOTION_DOT":0.00028187,"MEAN_MOTION_DDOT":0}]}
