KUIPER-00517            
1 69600U 26140J   26189.49564329  .00023538  00000+0  61304-3 0  9999
2 69600  51.8770 295.5324 0009784 263.9930  95.9943 15.38717662  4516
KUIPER-00520            
1 69601U 26140K   26189.51491150  .00013114  00000+0  36036-3 0  9997
2 69601  51.8814 295.6676 0006440 331.4189  28.6444 15.37532936  4517
KUIPER-00522            
1 69602U 26140L   26189.49167801  .00024274  00000+0  63425-3 0  9999
2 69602  51.8791 295.5101 0014163 248.4936 111.4542 15.38548565  4518
KUIPER-00528            
1 69603U 26140M   26189.51694574  .00011252  00000+0  31232-3 0  9998
2 69603  51.8782 295.6710 0005401 338.0336  22.0418 15.37382673  4515
KUIPER-00532            
1 69604U 26140N   26189.52454201  .00016476  00000+0  46263-3 0  9994
2 69604  51.8784 295.7194 0005571  11.7203 348.3912 15.36662626  4512
KUIPER-00533            
1 69605U 26140P   26189.50448684  .00021377  00000+0  56804-3 0  9999
2 69605  51.8790 295.5921 0008910 303.0953  56.9178 15.38167486  4517
KUIPER-00534            
1 69606U 26140Q   26189.48685345  .00025336  00000+0  65857-3 0  9991
2 69606  51.8827 295.4837 0014872 250.8800 109.0577 15.38672593  4511
KUIPER-00537            
1 69607U 26140R   26189.47327769  .00013866  00000+0  42012-3 0  9997
2 69607  51.8813 296.1306 0010746  33.1691 326.9966 15.34377110  4506
KUIPER-00538            
1 69608U 26140S   26189.51279549  .00021956  00000+0  59376-3 0  9995
2 69608  51.8793 295.6505 0005731 318.8875  41.1679 15.37628236  4513
KUIPER-00540            
1 69609U 26140T   26189.52139426  .00016372  00000+0  45685-3 0  9990
2 69609  51.8827 295.7108 0006016   5.1562 354.9485 15.36861629  4512
KUIPER-00541            
1 69610U 26140U   26189.50474705  .00030912  00000+0  81214-3 0  9996
2 69610  51.8804 295.6023 0006603 298.6995  61.3328 15.38320854  4512
KUIPER-00542            
1 69611U 26140V   26189.50306737  .00020938  00000+0  55442-3 0  9997
2 69611  51.8798 295.5848 0008251 281.4637  78.5423 15.38296256  4517
KUIPER-00543            
1 69612U 26140W   26189.52539899  .00016468  00000+0  46113-3 0  9995
2 69612  51.8762 295.7224 0008264   6.6201 353.4893 15.36734175  4518
KUIPER-00544            
1 69613U 26140X   26189.50698807  .00026913  00000+0  71425-3 0  9999
2 69613  51.8782 295.6077 0008100 298.2161  61.8008 15.38074644  4517
KUIPER-00546            
1 69614U 26140Y   26189.48788299  .00022946  00000+0  59439-3 0  9995
2 69614  51.8804 295.4870 0015668 247.3176 112.6155 15.38826505  4519
KUIPER-00547            
1 69615U 26140Z   26189.50000640  .00028187  00000+0  75340-3 0  9998
2 69615  51.8862 295.5736 0011441 266.0931  93.8748 15.37797562  4515
